NORAD_CAT_ID,OBJECT_NAME,OBJECT_TYPE,EPOCH,MEAN_MOTION,ECCENTRICITY,INCLINATION,RA_OF_ASC_NODE,ARG_OF_PERICENTER,MEAN_ANOMALY,BSTAR,MEAN_MOTION_DOT,MEAN_MOTION_DDOT,TLE_LINE0,TLE_LINE1,TLE_LINE2,SEMIMAJOR_AXIS,PERIOD,APOGEE,PERIGEE,DECAYED
53737.0,STARLINK-4646,PAYLOAD,2022-11-22 22:00:00,15.08830731,0.0001374,53.2162,263.4163,86.178,57.9692,-0.00097714,-0.00015801,0.0,0 STARLINK-4646,1 53737U 22107AP  22326.91667824 -.00015801  00000-0 -97714-3 0  9993,2 53737  53.2162 263.4163 0001374  86.1780  57.9692 15.08830731  1304,6917.909000000002,95.438,540.724,538.823,0.0
53737.0,STARLINK-4646,PAYLOAD,2022-11-23 08:00:01,15.08815355,0.0001367,53.216,261.5472,74.7553,173.8624,0.0020469,0.00032417,0.0,0 STARLINK-4646,1 53737U 22107AP  22327.33334491  .00032417  00000-0  20469-2 0  9993,2 53737  53.2160 261.5472 0001367  74.7553 173.8624 15.08815355 12295,6917.956,95.439,540.766,538.875,0.0
53737.0,STARLINK-4646,PAYLOAD,2022-11-23 14:00:01,15.08827606,0.0001326,53.2165,260.4235,82.1345,85.1696,0.00077942,0.00012134,0.0,0 STARLINK-4646,1 53737U 22107AP  22327.58334491  .00012134  00000-0  77942-3 0  9993,2 53737  53.2165 260.4235 0001326  82.1345  85.1696 15.08827606  1308,6917.918000000002,95.438,540.701,538.866,0.0
53737.0,STARLINK-4646,PAYLOAD,2022-11-23 22:00:00,15.08854102,0.0001416999999999,53.2167,258.9274,83.4334,95.4505,-0.00069036,-0.00011262,0.0,0 STARLINK-4646,1 53737U 22107AP  22327.91667824 -.00011262  00000-0 -69036-3 0  9997,2 53737  53.2167 258.9274 0001417  83.4334  95.4505 15.08854102  1302,6917.837,95.437,540.683,538.722,0.0
53737.0,STARLINK-4646,PAYLOAD,2022-11-24 08:00:01,15.08850699,0.0001361,53.2164,257.0581,72.9508,210.4397,-0.0013659,-0.00021967,0.0,0 STARLINK-4646,1 53737U 22107AP  22328.33334491 -.00021967  00000-0 -13659-2 0  9997,2 53737  53.2164 257.0581 0001361  72.9508 210.4397 15.08850699 12446,6917.848000000001,95.437,540.654,538.771,0.0
53737.0,STARLINK-4646,PAYLOAD,2022-11-24 14:00:01,15.08822737,0.0001271,53.2168,255.9344,79.9938,122.105,0.0012329,0.00019379,0.0,0 STARLINK-4646,1 53737U 22107AP  22328.58334491  .00019379  00000-0  12329-2 0  9999,2 53737  53.2168 255.9344 0001271  79.9938 122.1050 15.08822737  1308,6917.933000000001,95.439,540.677,538.919,0.0
53737.0,STARLINK-4646,PAYLOAD,2022-11-24 22:00:00,15.08853467,0.0001377,53.217,254.4386,81.0395,132.6367,-0.00091417,-0.00014813,0.0,0 STARLINK-4646,1 53737U 22107AP  22328.91667824 -.00014813  00000-0 -91417-3 0  9991,2 53737  53.2170 254.4386 0001377  81.0395 132.6367 15.08853467  1300,6917.839,95.437,540.6569999999998,538.752,0.0
53737.0,STARLINK-4646,PAYLOAD,2022-11-25 08:00:01,15.08859093,0.0001436,53.2166,252.5691,72.1663,246.0135,-0.0022381,-0.00035749,0.0,0 STARLINK-4646,1 53737U 22107AP  22329.33334491 -.00035749  00000-0 -22381-2 0  9993,2 53737  53.2166 252.5691 0001436  72.1663 246.0135 15.08859093 12595,6917.821999999999,95.436,540.68,538.694,0.0
53737.0,STARLINK-4646,PAYLOAD,2022-11-25 14:00:01,15.08820637,0.0001447,53.2169,251.4455,81.0169,155.8793,0.0020923,0.0003315,0.0,0 STARLINK-4646,1 53737U 22107AP  22329.58334491  .00033150  00000-0  20923-2 0  9992,2 53737  53.2169 251.4455 0001447  81.0169 155.8793 15.08820637  1302,6917.94,95.439,540.806,538.804,0.0
53737.0,STARLINK-4646,PAYLOAD,2022-11-25 22:00:00,15.08861041,0.0001516,53.2169,249.9499,81.432,167.0464,-0.00054145,-8.9e-05,0.0,0 STARLINK-4646,1 53737U 22107AP  22329.91667824 -.00008900  00000-0 -54145-3 0  9999,2 53737  53.2169 249.9499 0001516  81.4320 167.0464 15.08861041 12689,6917.816,95.436,540.73,538.632,0.0
53737.0,STARLINK-4646,PAYLOAD,2022-11-26 14:00:01,15.08837432,0.0001395999999999,53.2166,246.9566,82.1621,189.5653,0.00080201,0.00012498,0.0,0 STARLINK-4646,1 53737U 22107AP  22330.58334491  .00012498  00000-0  80201-3 0  9992,2 53737  53.2166 246.9566 0001396  82.1621 189.5653 15.08837432  1309,6917.888000000001,95.438,540.719,538.788,0.0
53737.0,STARLINK-4646,PAYLOAD,2022-11-26 22:00:00,15.0884935,0.0001485,53.2165,245.461,81.3667,201.9571,-0.0023041,-0.0003678,0.0,0 STARLINK-4646,1 53737U 22107AP  22330.91667824 -.00036780  00000-0 -23041-2 0  9998,2 53737  53.2165 245.4610 0001485  81.3667 201.9571 15.08849350  1302,6917.852,95.437,540.744,538.69,0.0
53737.0,STARLINK-4646,PAYLOAD,2022-11-27 06:00:00,15.08826753,0.0001473,53.2159,243.9657,74.21600000000002,220.7002,6.2448e-05,7.06e-06,0.0,0 STARLINK-4646,1 53737U 22107AP  22331.25001157  .00000706  00000-0  62448-4 0  9990,2 53737  53.2159 243.9657 0001473  74.2160 220.7002 15.08826753 12880,6917.920999999999,95.438,540.805,538.7669999999998,0.0
53737.0,STARLINK-4646,PAYLOAD,2022-11-27 14:00:01,15.08792679,0.0001367,53.2159,242.4677,83.9769,222.5264,0.002936,0.00046687,0.0,0 STARLINK-4646,1 53737U 22107AP  22331.58334491  .00046687  00000-0  29360-2 0  9998,2 53737  53.2159 242.4677 0001367  83.9769 222.5264 15.08792679  1304,6918.025,95.441,540.836,538.944,0.0
53737.0,STARLINK-4646,PAYLOAD,2022-11-27 22:00:00,15.08836283,0.0001436,53.2158,240.9722,82.1192,235.9364,-0.0011856,-0.00019105,0.0,0 STARLINK-4646,1 53737U 22107AP  22331.91667824 -.00019105  00000-0 -11856-2 0  9992,2 53737  53.2158 240.9722 0001436  82.1192 235.9364 15.08836283  1304,6917.892,95.438,540.75,538.763,0.0
53737.0,STARLINK-4646,PAYLOAD,2022-11-28 08:00:01,15.08855961,0.0001495,53.2151,239.1021,76.7198,345.8101,-0.0031956,-0.0005081,0.0,0 STARLINK-4646,1 53737U 22107AP  22332.33334491 -.00050810  00000-0 -31956-2 0  9991,2 53737  53.2151 239.1021 0001495  76.7198 345.8101 15.08855961 13058,6917.831999999999,95.437,540.731,538.6619999999998,0.0
53737.0,STARLINK-4646,PAYLOAD,2022-11-28 22:00:01,15.0883965,0.0001593,53.2151,236.4833,82.9052,269.9568,-0.0012741,-0.00020508,0.0,0 STARLINK-4646,1 53737U 22107AP  22332.91668981 -.00020508  00000-0 -12741-2 0  9991,2 53737  53.2151 236.4833 0001593  82.9052 269.9568 15.08839650 13146,6917.880999999999,95.438,540.8480000000002,538.644,0.0
53737.0,STARLINK-4646,PAYLOAD,2022-11-29 14:00:01,15.08829732,0.0001494,53.2146,233.4893,86.1831,289.8672,0.00043365,6.618e-05,0.0,0 STARLINK-4646,1 53737U 22107AP  22333.58335648  .00006618  00000-0  43365-3 0  9997,2 53737  53.2146 233.4893 0001494  86.1831 289.8672 15.08829732 13242,6917.9119999999975,95.438,540.81,538.743,0.0
53737.0,STARLINK-4646,PAYLOAD,2022-11-29 22:00:00,15.08839954,0.0001534,53.2147,231.9941,81.4863,306.0853,-0.0011627,-0.00018745,0.0,0 STARLINK-4646,1 53737U 22107AP  22333.91667824 -.00018745  00000-0 -11627-2 0  9999,2 53737  53.2147 231.9941 0001534  81.4863 306.0853 15.08839954  1302,6917.880999999999,95.438,540.807,538.684,0.0
53737.0,STARLINK-4646,PAYLOAD,2022-11-30 14:00:01,15.08833569,0.0001514,53.215,229.0005,85.5862,325.2347,0.0012106,0.00019028,0.0,0 STARLINK-4646,1 53737U 22107AP  22334.58335648  .00019028  00000-0  12106-2 0  9995,2 53737  53.2150 229.0005 0001514  85.5862 325.2347 15.08833569  1304,6917.9,95.438,540.812,538.7180000000002,0.0
53737.0,STARLINK-4646,PAYLOAD,2022-11-30 22:00:00,15.08847586,0.0001689,53.216,227.5076,85.1277,337.2262,-0.00202,-0.000323,0.0,0 STARLINK-4646,1 53737U 22107AP  22334.91667824 -.00032300  00000-0 -20200-2 0  9990,2 53737  53.2160 227.5076 0001689  85.1277 337.2262 15.08847586 13446,6917.857,95.437,540.891,538.554,0.0
53737.0,STARLINK-4646,PAYLOAD,2022-12-01 14:00:01,15.08827282,0.0001657,53.2153,224.5105,84.258,1.2883,0.0035726,0.0005701,0.0,0 STARLINK-4646,1 53737U 22107AP  22335.58334491  .00057010  00000-0  35726-2 0  9997,2 53737  53.2153 224.5105 0001657  84.2580   1.2883 15.08827282  1300,6917.919,95.438,540.931,538.638,0.0
53737.0,STARLINK-4646,PAYLOAD,2022-12-01 22:00:00,15.0885623,0.000169,53.2155,223.0153,79.2107,17.939,-0.002297,-0.00036676,0.0,0 STARLINK-4646,1 53737U 22107AP  22335.91667824 -.00036676  00000-0 -22970-2 0  9997,2 53737  53.2155 223.0153 0001690  79.2107  17.9390 15.08856230 13591,6917.831,95.437,540.865,538.5269999999998,0.0
53737.0,STARLINK-4646,PAYLOAD,2022-12-02 14:00:01,15.08788939,0.000178,53.2159,220.0212,80.9779,39.3357,0.0031191999999999,0.00049635,0.0,0 STARLINK-4646,1 53737U 22107AP  22336.58334491  .00049635  00000-0  31192-2 0  9995,2 53737  53.2159 220.0212 0001780  80.9779  39.3357 15.08788939  1309,6918.036,95.441,541.133,538.67,0.0
53737.0,STARLINK-4646,PAYLOAD,2022-12-02 22:00:00,15.08825668,0.0001883,53.216,218.5263,76.5428,55.3252,-0.00094462,-0.00015285,0.0,0 STARLINK-4646,1 53737U 22107AP  22336.91667824 -.00015285  00000-0 -94462-3 0  9997,2 53737  53.2160 218.5263 0001883  76.5428  55.3252 15.08825668  1308,6917.924,95.438,541.092,538.487,0.0
53737.0,STARLINK-4646,PAYLOAD,2022-12-03 00:00:00,15.0881327,0.0001908,53.2161,218.1526,74.7194,150.0447,0.00075976,0.00011815,0.0,0 STARLINK-4646,1 53737U 22107AP  22337.00001157  .00011815  00000-0  75976-3 0  9991,2 53737  53.2161 218.1526 0001908  74.7194 150.0447 15.08813270 13752,6917.962,95.439,541.1469999999998,538.507,0.0
53737.0,STARLINK-4646,PAYLOAD,2022-12-03 14:00:01,15.08815144,0.0001819,53.2162,215.5322,82.3214,72.7042,0.0027757,0.00044134,0.0,0 STARLINK-4646,1 53737U 22107AP  22337.58334491  .00044134  00000-0  27757-2 0  9997,2 53737  53.2162 215.5322 0001819  82.3214  72.7042 15.08815144  1308,6917.956,95.439,541.08,538.563,0.0
53737.0,STARLINK-4646,PAYLOAD,2022-12-03 22:00:00,15.08845534,0.0001895,53.2162,214.0374,77.2868,89.3233,-0.00079268,-0.00012884,0.0,0 STARLINK-4646,1 53737U 22107AP  22337.91667824 -.00012884  00000-0 -79268-3 0  9997,2 53737  53.2162 214.0374 0001895  77.2868  89.3233 15.08845534  1303,6917.863,95.437,541.039,538.418,0.0
53737.0,STARLINK-4646,PAYLOAD,2022-12-04 06:00:00,15.08858333,0.0001869,53.2159,212.5409,76.1452,102.0584,-0.00083885,-0.00013621,0.0,0 STARLINK-4646,1 53737U 22107AP  22338.25001157 -.00013621  00000-0 -83885-3 0  9996,2 53737  53.2159 212.5409 0001869  76.1452 102.0584 15.08858333 13945,6917.824000000001,95.436,540.982,538.396,0.0
